GLOBALSTAR M035         
1 25851U 99037A   25214.46263740 -.00000018  00000+0  17225-2 0  9993
2 25851  51.9978 311.7708 0013689  58.7843  23.3053 11.04539059101376
GLOBALSTAR M032         
1 25852U 99037B   25214.15500464 -.00000073  00000+0 -20583-3 0  9991
2 25852  51.9947 134.4795 0011852 244.9415 115.0155 11.19062203139936
GLOBALSTAR M051         
1 25853U 99037C   25214.43639838 -.00000068  00000+0  99996-4 0  9999
2 25853  51.9800 289.3254 0000261 258.9817 101.0964 11.42204665137676
GLOBALSTAR M030         
1 25854U 99037D   25214.12036638 -.00000056  00000+0  40460-3 0  9993
2 25854  51.9877  93.2698 0003490 117.6280 242.4891 11.55111981155353
GLOBALSTAR M048         
1 25872U 99041A   25214.59837458 -.00000053  00000+0  45796-3 0  9992
2 25872  51.9331 225.7603 0013676 265.4166 251.8283 11.33858429130249
GLOBALSTAR M026         
1 25873U 99041B   25214.56275212 -.00000006  00000+0  21545-2 0  9997
2 25873  52.0016  69.0150 0002120  11.8653  25.8871 11.06846342153624
GLOBALSTAR M043         
1 25874U 99041C   25214.53537064 -.00000053  00000+0  46495-3 0  9995
2 25874  51.9436 335.4018 0013419  33.7599  49.3305 11.25694767128096
GLOBALSTAR M028         
1 25875U 99041D   25214.82871906 -.00000106  00000+0 -34234-4 0  9993
2 25875  51.9636  53.9870 0063277 171.9584 188.2305 12.50585082196044
